{"type": "FeatureCollection", "features": [ {"type": "Feature", "properties": {"norad_id": 37216, "name": "COSMO-SKYMED 4", "group": "resource", "lat": -61.519429666974005, "lon": -36.422240431219564, "alt_km": 630.6382711592196, "timestamp": "2025-12-02T21:34:00.929943+00:00", "meta": {"OBJECT_NAME": "COSMO-SKYMED 4", "OBJECT_ID": "2010-060A", "EPOCH": "2025-12-02T12:22:30.127872", "MEAN_MOTION": 14.8216628, "ECCENTRICITY": 0.0001482, "INCLINATION": 97.8807, "RA_OF_ASC_NODE": 157.9928, "ARG_OF_PERICENTER": 84.8113, "MEAN_ANOMALY": 275.3269, "EPHEMERIS_TYPE": 0, "CLASSIFICATION_TYPE": "U", "NORAD_CAT_ID": 37216, "ELEMENT_SET_NO": 999, "REV_AT_EPOCH": 81543, "BSTAR": 0.00010923, "MEAN_MOTION_DOT": 8.18e-06, "MEAN_MOTION_DDOT": 0}, "tle": {"line1": "1 37216U 10060A   25336.51562648  .00000818  00000+0  10923-3 0  9996", "line2": "2 37216  97.8807 157.9928 0001482  84.8113 275.3269 14.82166280815434"}}, "geometry": {"type": "Point", "coordinates": [-36.422240431219564, -61.519429666974005]}}, {"type": "Feature", "properties": {"norad_id": 37387, "name": "RESOURCESAT-2", "group": "resource", "lat": -9.479704196251935, "lon": -140.9862777282557, "alt_km": 826.6257328694537, "timestamp": "2025-12-02T21:34:00.929954+00:00", "meta": {"OBJECT_NAME": "RESOURCESAT-2", "OBJECT_ID": "2011-015A", "EPOCH": "2025-12-02T10:32:37.908960", "MEAN_MOTION": 14.21590442, "ECCENTRICITY": 0.0006813, "INCLINATION": 98.7891, "RA_OF_ASC_NODE": 40.0368, "ARG_OF_PERICENTER": 68.9757, "MEAN_ANOMALY": 291.2148, "EPHEMERIS_TYPE": 0, "CLASSIFICATION_TYPE": "U", "NORAD_CAT_ID": 37387, "ELEMENT_SET_NO": 999, "REV_AT_EPOCH": 75822, "BSTAR": 0.00011987, "MEAN_MOTION_DOT": 2.18e-06, "MEAN_MOTION_DDOT": 0}, "tle": {"line1": "1 37387U 11015A   25336.43932765  .00000218  00000+0  11987-3 0  9993", "line2": "2 37387  98.7891  40.0368 0006813  68.9757 291.2148 14.21590442758226"}}, "geometry": {"type": "Point", "coordinates": [-140.9862777282557, -9.479704196251935]}}, {"type": "Feature", "properties": {"norad_id": 37781, "name": "HAIYANG-2A", "group": "resource", "lat": -49.41871873354204, "lon": -10.94044938917261, "alt_km": 975.8345359486602, "timestamp": "2025-12-02T21:34:00.929964+00:00", "meta": {"OBJECT_NAME": "HAIYANG-2A", "OBJECT_ID": "2011-043A", "EPOCH": "2025-12-02T11:21:41.181120", "MEAN_MOTION": 13.78834071, "ECCENTRICITY": 0.0001643, "INCLINATION": 99.3377, "RA_OF_ASC_NODE": 337.5661, "ARG_OF_PERICENTER": 98.0698, "MEAN_ANOMALY": 262.064, "EPHEMERIS_TYPE": 0, "CLASSIFICATION_TYPE": "U", "NORAD_CAT_ID": 37781, "ELEMENT_SET_NO": 999, "REV_AT_EPOCH": 71957, "BSTAR": 5.6843e-05, "MEAN_MOTION_DOT": 1.4e-07, "MEAN_MOTION_DDOT": 0}, "tle": {"line1": "1 37781U 11043A   25336.47339330  .00000014  00000+0  56843-4 0  9990", "line2": "2 37781  99.3377 337.5661 0001643  98.0698 262.0640 13.78834071719572"}}, "geometry": {"type": "Point", "coordinates": [-10.94044938917261, -49.41871873354204]}}, {"type": "Feature", "properties": {"norad_id": 37791, "name": "RASAT", "group": "resource", "lat": 23.13116331859985, "lon": -110.22480488134944, "alt_km": 660.0923660253202, "timestamp": "2025-12-02T21:34:00.929974+00:00", "meta": {"OBJECT_NAME": "RASAT", "OBJECT_ID": "2011-044D", "EPOCH": "2025-12-02T12:56:08.056032", "MEAN_MOTION": 14.67885758, "ECCENTRICITY": 0.0021967, "INCLINATION": 98.0656, "RA_OF_ASC_NODE": 65.9481, "ARG_OF_PERICENTER": 95.7258, "MEAN_ANOMALY": 321.233, "EPHEMERIS_TYPE": 0, "CLASSIFICATION_TYPE": "U", "NORAD_CAT_ID": 37791, "ELEMENT_SET_NO": 999, "REV_AT_EPOCH": 76433, "BSTAR": 0.00016707, "MEAN_MOTION_DOT": 9.09e-06, "MEAN_MOTION_DDOT": 0}, "tle": {"line1": "1 37791U 11044D   25336.53898213  .00000909  00000+0  16707-3 0  9996", "line2": "2 37791  98.0656  65.9481 0021967  95.7258 321.2330 14.67885758764333"}}, "geometry": {"type": "Point", "coordinates": [-110.22480488134944, 23.13116331859985]}}, {"type": "Feature", "properties": {"norad_id": 37841, "name": "SRMSAT", "group": "resource", "lat": -0.2529079554762871, "lon": 166.82315380219362, "alt_km": 859.6267994431846, "timestamp": "2025-12-02T21:34:00.929984+00:00", "meta": {"OBJECT_NAME": "SRMSAT", "OBJECT_ID": "2011-058D", "EPOCH": "2025-12-01T21:57:27.777312", "MEAN_MOTION": 14.11505404, "ECCENTRICITY": 0.00117535, "INCLINATION": 19.9698, "RA_OF_ASC_NODE": 173.4687, "ARG_OF_PERICENTER": 193.5378, "MEAN_ANOMALY": 196.2106, "EPHEMERIS_TYPE": 0, "CLASSIFICATION_TYPE": "U", "NORAD_CAT_ID": 37841, "ELEMENT_SET_NO": 999, "REV_AT_EPOCH": 72991, "BSTAR": 0.00010220784, "MEAN_MOTION_DOT": 4.53e-06, "MEAN_MOTION_DDOT": 0}, "tle": {"line1": "1 37841U 11058D   25335.91490483  .00000453  00000+0  10221-3 0  9994", "line2": "2 37841  19.9698 173.4687 0011753 193.5378 196.2106 14.11505404729914"}}, "geometry": {"type": "Point", "coordinates": [166.82315380219362, -0.2529079554762871]}}, {"type": "Feature", "properties": {"norad_id": 38012, "name": "PLEIADES 1A", "group": "resource", "lat": -75.58545311416893, "lon": 83.8658237041614, "alt_km": 706.134733095957, "timestamp": "2025-12-02T21:34:00.929994+00:00", "meta": {"OBJECT_NAME": "PLEIADES 1A", "OBJECT_ID": "2011-076F", "EPOCH": "2025-12-02T12:34:36.414912", "MEAN_MOTION": 14.58545141, "ECCENTRICITY": 0.0001427, "INCLINATION": 98.1835, "RA_OF_ASC_NODE": 49.4498, "ARG_OF_PERICENTER": 82.0257, "MEAN_ANOMALY": 34.1969, "EPHEMERIS_TYPE": 0, "CLASSIFICATION_TYPE": "U", "NORAD_CAT_ID": 38012, "ELEMENT_SET_NO": 999, "REV_AT_EPOCH": 74332, "BSTAR": 0.00013886, "MEAN_MOTION_DOT": 6e-06, "MEAN_MOTION_DDOT": 0}, "tle": {"line1": "1 38012U 11076F   25336.52403258  .00000600  00000+0  13886-3 0  9991", "line2": "2 38012  98.1835  49.4498 0001427  82.0257  34.1969 14.58545141743325"}}, "geometry": {"type": "Point", "coordinates": [83.8658237041614, -75.58545311416893]}}, {"type": "Feature", "properties": {"norad_id": 38038, "name": "ZIYUAN 1-02C (ZY 1-02C)", "group": "resource", "lat": -16.559077360429843, "lon": -139.4354398623547, "alt_km": 765.8359816773282, "timestamp": "2025-12-02T21:34:00.930005+00:00", "meta": {"OBJECT_NAME": "ZIYUAN 1-02C (ZY 1-02C)", "OBJECT_ID": "2011-079A", "EPOCH": "2025-12-02T12:48:29.323008", "MEAN_MOTION": 14.37993418, "ECCENTRICITY": 0.0006736, "INCLINATION": 98.4347, "RA_OF_ASC_NODE": 42.735, "ARG_OF_PERICENTER": 166.7727, "MEAN_ANOMALY": 301.6469, "EPHEMERIS_TYPE": 0, "CLASSIFICATION_TYPE": "U", "NORAD_CAT_ID": 38038, "ELEMENT_SET_NO": 999, "REV_AT_EPOCH": 73094, "BSTAR": 0.00025114, "MEAN_MOTION_DOT": 7.16e-06, "MEAN_MOTION_DDOT": 0}, "tle": {"line1": "1 38038U 11079A   25336.53367272  .00000716  00000+0  25114-3 0  9993", "line2": "2 38038  98.4347  42.7350 0006736 166.7727 301.6469 14.37993418730949"}}, "geometry": {"type": "Point", "coordinates": [-139.4354398623547, -16.559077360429843]}}, {"type": "Feature", "properties": {"norad_id": 38046, "name": "ZIYUAN 3-1 (ZY 3-1)", "group": "resource", "lat": 82.32985508529895, "lon": -26.26963474872902, "alt_km": 360.07658070484104, "timestamp": "2025-12-02T21:34:00.930015+00:00", "meta": {"OBJECT_NAME": "ZIYUAN 3-1 (ZY 3-1)", "OBJECT_ID": "2012-001A", "EPOCH": "2025-12-02T11:59:53.165760", "MEAN_MOTION": 15.66622638, "ECCENTRICITY": 0.0002221, "INCLINATION": 97.1784, "RA_OF_ASC_NODE": 42.6922, "ARG_OF_PERICENTER": 34.769, "MEAN_ANOMALY": 325.3716, "EPHEMERIS_TYPE": 0, "CLASSIFICATION_TYPE": "U", "NORAD_CAT_ID": 38046, "ELEMENT_SET_NO": 999, "REV_AT_EPOCH": 77336, "BSTAR": 0.00070219, "MEAN_MOTION_DOT": 0.00073852, "MEAN_MOTION_DDOT": 0}, "tle": {"line1": "1 38046U 12001A   25336.49992090  .00073852  00000+0  70219-3 0  9992", "line2": "2 38046  97.1784  42.6922 0002221  34.7690 325.3716 15.66622638773368"}}, "geometry": {"type": "Point", "coordinates": [-26.26963474872902, 82.32985508529895]}}, {"type": "Feature", "properties": {"norad_id": 38338, "name": "ARIRANG-3 (KOMPSAT-3)", "group": "resource", "lat": 66.41586203095818, "lon": -88.1969203937956, "alt_km": 678.9686327596592, "timestamp": "2025-12-02T21:34:00.930026+00:00", "meta": {"OBJECT_NAME": "ARIRANG-3 (KOMPSAT-3)", "OBJECT_ID": "2012-025B", "EPOCH": "2025-12-02T11:24:01.760832", "MEAN_MOTION": 14.61689956, "ECCENTRICITY": 0.0006085, "INCLINATION": 98.3307, "RA_OF_ASC_NODE": 290.9881, "ARG_OF_PERICENTER": 10.9691, "MEAN_ANOMALY": 349.1641, "EPHEMERIS_TYPE": 0, "CLASSIFICATION_TYPE": "U", "NORAD_CAT_ID": 38338, "ELEMENT_SET_NO": 999, "REV_AT_EPOCH": 72260, "BSTAR": 0.00018098, "MEAN_MOTION_DOT": 8.53e-06, "MEAN_MOTION_DDOT": 0}, "tle": {"line1": "1 38338U 12025B   25336.47502038  .00000853  00000+0  18098-3 0  9997", "line2": "2 38338  98.3307 290.9881 0006085  10.9691 349.1641 14.61689956722609"}}, "geometry": {"type": "Point", "coordinates": [-88.1969203937956, 66.41586203095818]}}, {"type": "Feature", "properties": {"norad_id": 38709, "name": "EXACTVIEW-1 (ADS-1B)", "group": "resource", "lat": -70.98197747457135, "lon": 112.33453306570173, "alt_km": 816.8269175176829, "timestamp": "2025-12-02T21:34:00.930036+00:00", "meta": {"OBJECT_NAME": "EXACTVIEW-1 (ADS-1B)", "OBJECT_ID": "2012-039C", "EPOCH": "2025-12-02T06:44:31.074144", "MEAN_MOTION": 14.24900835, "ECCENTRICITY": 0.0011197, "INCLINATION": 98.9635, "RA_OF_ASC_NODE": 84.4517, "ARG_OF_PERICENTER": 24.0465, "MEAN_ANOMALY": 336.1234, "EPHEMERIS_TYPE": 0, "CLASSIFICATION_TYPE": "U", "NORAD_CAT_ID": 38709, "ELEMENT_SET_NO": 999, "REV_AT_EPOCH": 69466, "BSTAR": 0.00010714, "MEAN_MOTION_DOT": 2.04e-06, "MEAN_MOTION_DDOT": 0}, "tle": {"line1": "1 38709U 12039C   25336.28091521  .00000204  00000+0  10714-3 0  9990", "line2": "2 38709  98.9635  84.4517 0011197  24.0465 336.1234 14.24900835694667"}}, "geometry": {"type": "Point", "coordinates": [112.33453306570173, -70.98197747457135]}}]}